[{"OBJECT_NAME":"UHETSAT","OBJECT_ID":"2023-185E","EPOCH":"2026-03-09T22:39:26.455680","MEAN_MOTION":15.29797662,"ECCENTRICITY":0.00118435,"INCLINATION":97.3584,"RA_OF_ASC_NODE":137.3576,"ARG_OF_PERICENTER":307.7346,"MEAN_ANOMALY":52.2821,"EPHEMERIS_TYPE":0,"CLASSIFICATION_TYPE":"U","NORAD_CAT_ID":58466,"ELEMENT_SET_NO":999,"REV_AT_EPOCH":12611,"BSTAR":0.00030513019,"MEAN_MOTION_DOT":8.749e-5,"MEAN_MOTION_DDOT":0},{"OBJECT_NAME":"STARLINK-35128","OBJECT_ID":"2025-210G","EPOCH":"2026-03-09T23:14:35.134944","MEAN_MOTION":15.30200232,"ECCENTRICITY":0.00010941,"INCLINATION":53.1606,"RA_OF_ASC_NODE":305.7955,"ARG_OF_PERICENTER":85.1696,"MEAN_ANOMALY":274.943,"EPHEMERIS_TYPE":0,"CLASSIFICATION_TYPE":"U","NORAD_CAT_ID":65628,"ELEMENT_SET_NO":999,"REV_AT_EPOCH":2777,"BSTAR":0.0011599933,"MEAN_MOTION_DOT":0.00034155,"MEAN_MOTION_DDOT":0}]
